[{"OBJECT_NAME":"STARLINK-4131","OBJECT_ID":"2022-086E","EPOCH":"2026-03-09T16:44:39.392160","MEAN_MOTION":15.08827767,"ECCENTRICITY":0.00015979,"INCLINATION":53.2187,"RA_OF_ASC_NODE":204.0913,"ARG_OF_PERICENTER":45.235,"MEAN_ANOMALY":314.8772,"EPHEMERIS_TYPE":0,"CLASSIFICATION_TYPE":"U","NORAD_CAT_ID":53246,"ELEMENT_SET_NO":999,"REV_AT_EPOCH":20013,"BSTAR":-5.3472321e-5,"MEAN_MOTION_DOT":-1.139e-5,"MEAN_MOTION_DDOT":0},{"OBJECT_NAME":"PEGASUS DEB","OBJECT_ID":"1994-029AFX","EPOCH":"2026-03-01T06:33:22.731264","MEAN_MOTION":14.85739755,"ECCENTRICITY":0.0106553,"INCLINATION":81.851,"RA_OF_ASC_NODE":257.2393,"ARG_OF_PERICENTER":271.4617,"MEAN_ANOMALY":87.4394,"EPHEMERIS_TYPE":0,"CLASSIFICATION_TYPE":"U","NORAD_CAT_ID":39924,"ELEMENT_SET_NO":999,"REV_AT_EPOCH":63095,"BSTAR":0.00041812,"MEAN_MOTION_DOT":4.045e-5,"MEAN_MOTION_DDOT":0}]
